QIANFAN-1               
1 60379U 24140A   25345.13727626  .00000137  00000+0  19328-3 0  9995
2 60379  88.9758 299.4459 0015982 215.5068 144.5021 13.50977603 67131
QIANFAN-2               
1 60380U 24140B   25345.16627640  .00000140  00000+0  19738-3 0  9994
2 60380  88.9744 299.2824 0012074 183.4961 176.6108 13.50981268 67196
QIANFAN-3               
1 60381U 24140C   25345.17444113  .00000130  00000+0  18318-3 0  9990
2 60381  88.9737 299.4143 0012796 197.5756 162.4954 13.50981797 67104
QIANFAN-4               
1 60382U 24140D   25345.14962066  .00000129  00000+0  18165-3 0  9998
2 60382  88.9762 299.3141 0012211 186.4635 173.6360 13.50981961 67226
QIANFAN-5               
1 60383U 24140E   25345.12506150  .00000138  00000+0  19556-3 0  9990
2 60383  88.9736 299.4449 0013765 210.5681 149.4670 13.50979443 67086
QIANFAN-6               
1 60384U 24140F   25345.14565545  .00000131  00000+0  18378-3 0  9990
2 60384  88.9764 299.1885 0012149 192.8522 167.2321 13.50979919 67281
QIANFAN-7               
1 60385U 24140G   25345.13261802  .00001011  00000+0  40400-3 0  9998
2 60385  88.9779 293.9095 0017053  50.4262 309.8436 14.27645366 70165
QIANFAN-8               
1 60386U 24140H   25345.15391190  .00000121  00000+0  16869-3 0  9998
2 60386  88.9765 299.4251 0015522 196.8746 163.1891 13.50977783 67132
